IRIDIUM 159             
1 43578U 18061K   24214.77706323  .00000184  00000+0  58710-4 0  9998
2 43578  86.4006 342.7269 0002164  99.2586 260.8855 14.34218956315284
IRIDIUM 180             
1 43922U 19002A   24215.54401516  .00000160  00000+0  50131-4 0  9992
2 43922  86.3949 279.2812 0002342  97.9216 262.2246 14.34218410291045
IRIDIUM 176             
1 43923U 19002B   24213.63672604  .00000051  00000+0  41988-5 0  9999
2 43923  86.6076 280.0973 0002162  96.6144 263.5319 14.72251087298382
IRIDIUM 168             
1 43924U 19002C   24215.53768087  .00000502  00000+0  17214-3 0  9996
2 43924  86.3951 279.3420 0002217  96.3107 263.8341 14.34219088290986
IRIDIUM 173             
1 43925U 19002D   24214.89707101  .00000224  00000+0  72931-4 0  9994
2 43925  86.3950 279.5268 0002260  96.0686 264.0767 14.34218398290871
IRIDIUM 169             
1 43926U 19002E   24214.82346203  .00000632  00000+0  20011-3 0  9994
2 43926  86.4246 311.1910 0004169  89.9468 270.2208 14.38607666291837
IRIDIUM 172             
1 43927U 19002F   24214.89072827  .00000434  00000+0  14808-3 0  9997
2 43927  86.3949 279.5351 0002187  92.2230 267.9216 14.34218886290889
IRIDIUM 175             
1 43928U 19002G   24215.19434912  .00001861  00000+0  29122-3 0  9999
2 43928  86.1478 249.9850 0002785  91.2222 268.9314 14.72243035298608
